start=new Date('2022-07-01T00:00:00.000Z').valueOf();
sats=[{"NORAD_CAT_ID":"47351","SITE":"AFETR","RCS_SIZE":"LARGE","SEMIMAJOR_AXIS":"6925.027","OBJECT_TYPE":"PAYLOAD","MEAN_MOTION_DDOT":"0.0000000000000","ARG_OF_PERICENTER":"89.2301","REV_AT_EPOCH":"8043","LAUNCH_DATE":"2021-01-20","CLASSIFICATION_TYPE":"U","MEAN_MOTION":"15.06505081","TLE_LINE2":"2 47351  53.0556 312.7658 0000804  89.2301 270.8780 15.06505081 80431","RA_OF_ASC_NODE":"312.7658","ECCENTRICITY":"0.00008040","FILE":"3505946","REF_FRAME":"TEME","MEAN_ANOMALY":"270.8780","CENTER_NAME":"EARTH","MEAN_MOTION_DOT":"-0.00021019","COUNTRY_CODE":"US","BSTAR":"-0.00139240000000","MEAN_ELEMENT_THEORY":"SGP4","EPHEMERIS_TYPE":"0","TIME_SYSTEM":"UTC","OBJECT_NAME":"STARLINK-2017","GP_ID":"207176502","PERIAPSIS":"546.335","TLE_LINE1":"1 47351U 21005C   22181.74353352 -.00021019  00000-0 -13924-2 0  9990","DECAY_DATE":null,"OBJECT_ID":"2021-005C","APOAPSIS":"547.448","PERIOD":"95.585","ELEMENT_SET_NO":"999","INCLINATION":"53.0556","EPOCH":"2022-06-30T17:50:41.296128"},{"EPOCH":"2022-06-30T18:18:37.878624","INCLINATION":"53.0558","ELEMENT_SET_NO":"999","OBJECT_ID":"2021-005D","APOAPSIS":"548.310","PERIOD":"95.592","TLE_LINE1":"1 47352U 21005D   22181.76293841  .00000535  00000-0  54824-4 0  9993","DECAY_DATE":null,"PERIAPSIS":"546.123","EPHEMERIS_TYPE":"0","OBJECT_NAME":"STARLINK-2034","TIME_SYSTEM":"UTC","GP_ID":"207177250","BSTAR":"0.00005482400000","MEAN_ELEMENT_THEORY":"SGP4","COUNTRY_CODE":"US","MEAN_MOTION_DOT":"0.00000535","CENTER_NAME":"EARTH","MEAN_ANOMALY":"291.9857","FILE":"3505946","REF_FRAME":"TEME","ECCENTRICITY":"0.00015790","TLE_LINE2":"2 47352  53.0558 352.7096 0001579  68.1300 291.9857 15.06398943 79871","MEAN_MOTION":"15.06398943","RA_OF_ASC_NODE":"352.7096","LAUNCH_DATE":"2021-01-20","CLASSIFICATION_TYPE":"U","ARG_OF_PERICENTER":"68.1300","REV_AT_EPOCH":"7987","MEAN_MOTION_DDOT":"0.0000000000000","OBJECT_TYPE":"PAYLOAD","SEMIMAJOR_AXIS":"6925.352","SITE":"AFETR","RCS_SIZE":"LARGE","NORAD_CAT_ID":"47352"},{"MEAN_MOTION_DOT":"-0.00000247","COUNTRY_CODE":"US","BSTAR":"0.00000233000000","MEAN_ELEMENT_THEORY":"SGP4","OBJECT_NAME":"STARLINK-2045","EPHEMERIS_TYPE":"0","TIME_SYSTEM":"UTC","GP_ID":"207176001","PERIAPSIS":"546.234","TLE_LINE1":"1 47353U 21005E   22181.71825881 -.00000247  00000-0  23300-5 0  9991","DECAY_DATE":null,"OBJECT_ID":"2021-005E","APOAPSIS":"548.241","PERIOD":"95.593","ELEMENT_SET_NO":"999","INCLINATION":"53.0550","EPOCH":"2022-06-30T17:14:17.561184","NORAD_CAT_ID":"47353","SITE":"AFETR","RCS_SIZE":"LARGE","SEMIMAJOR_AXIS":"6925.372","OBJECT_TYPE":"PAYLOAD","MEAN_MOTION_DDOT":"0.0000000000000","ARG_OF_PERICENTER":"64.7334","REV_AT_EPOCH":"8064","CLASSIFICATION_TYPE":"U","LAUNCH_DATE":"2021-01-20","TLE_LINE2":"2 47353  53.0550 297.9063 0001449  64.7334 295.3805 15.06392235 80649","MEAN_MOTION":"15.06392235","RA_OF_ASC_NODE":"297.9063","ECCENTRICITY":"0.00014490","FILE":"3505946","REF_FRAME":"TEME","MEAN_ANOMALY":"295.3805","CENTER_NAME":"EARTH"},{"MEAN_MOTION_DDOT":"0.0000000000000","SITE":"AFETR","RCS_SIZE":"LARGE","NORAD_CAT_ID":"47354","OBJECT_TYPE":"PAYLOAD","SEMIMAJOR_AXIS":"6925.346","ECCENTRICITY":"0.00012700","CENTER_NAME":"EARTH","MEAN_ANOMALY":"292.8735","REF_FRAME":"TEME","FILE":"3505946","REV_AT_EPOCH":"8035","ARG_OF_PERICENTER":"67.2389","RA_OF_ASC_NODE":"318.1336","MEAN_MOTION":"15.06400740","TLE_LINE2":"2 47354  53.0555 318.1336 0001270  67.2389 292.8735 15.06400740 80357","LAUNCH_DATE":"2021-01-20","CLASSIFICATION_TYPE":"U","MEAN_ELEMENT_THEORY":"SGP4","BSTAR":"0.00005190700000","COUNTRY_CODE":"US","PERIAPSIS":"546.332","GP_ID":"207176250","OBJECT_NAME":"STARLINK-2046","EPHEMERIS_TYPE":"0","TIME_SYSTEM":"UTC","MEAN_MOTION_DOT":"0.00000492","ELEMENT_SET_NO":"999","EPOCH":"2022-06-30T15:57:18.916128","INCLINATION":"53.0555","PERIOD":"95.592","APOAPSIS":"548.091","OBJECT_ID":"2021-005F","DECAY_DATE":null,"TLE_LINE1":"1 47354U 21005F   22181.66480227  .00000492  00000-0  51907-4 0  9991"},{"MEAN_MOTION_DDOT":"0.0000000000000","RCS_SIZE":"LARGE","SITE":"AFETR","NORAD_CAT_ID":"47355","OBJECT_TYPE":"PAYLOAD","SEMIMAJOR_AXIS":"6925.358","ECCENTRICITY":"0.00013800","CENTER_NAME":"EARTH","MEAN_ANOMALY":"290.2242","REF_FRAME":"TEME","FILE":"3505946","REV_AT_EPOCH":"8057","ARG_OF_PERICENTER":"69.8895","RA_OF_ASC_NODE":"302.7398","MEAN_MOTION":"15.06396994","TLE_LINE2":"2 47355  53.0533 302.7398 0001380  69.8895 290.2242 15.06396994 80577","LAUNCH_DATE":"2021-01-20","CLASSIFICATION_TYPE":"U","MEAN_ELEMENT_THEORY":"SGP4","BSTAR":"0.00007506400000","COUNTRY_CODE":"US","PERIAPSIS":"546.267","GP_ID":"207177002","TIME_SYSTEM":"UTC","EPHEMERIS_TYPE":"0","OBJECT_NAME":"STARLINK-2047","MEAN_MOTION_DOT":"0.00000837","ELEMENT_SET_NO":"999","EPOCH":"2022-06-30T18:04:02.692416","INCLINATION":"53.0533","PERIOD":"95.592","OBJECT_ID":"2021-005G","APOAPSIS":"548.178","DECAY_DATE":null,"TLE_LINE1":"1 47355U 21005G   22181.75280894  .00000837  00000-0  75064-4 0  9993"},{"ARG_OF_PERICENTER":"81.4989","REV_AT_EPOCH":"8030","MEAN_MOTION":"15.06401122","TLE_LINE2":"2 47356  53.0551 322.5412 0001493  81.4989 278.6170 15.06401122 80305","RA_OF_ASC_NODE":"322.5412","CLASSIFICATION_TYPE":"U","LAUNCH_DATE":"2021-01-20","ECCENTRICITY":"0.00014930","MEAN_ANOMALY":"278.6170","CENTER_NAME":"EARTH","FILE":"3505946","REF_FRAME":"TEME","RCS_SIZE":"LARGE","SITE":"AFETR","NORAD_CAT_ID":"47356","OBJECT_TYPE":"PAYLOAD","SEMIMAJOR_AXIS":"6925.345","MEAN_MOTION_DDOT":"0.0000000000000","APOAPSIS":"548.244","OBJECT_ID":"2021-005H","PERIOD":"95.592","TLE_LINE1":"1 47356U 21005H   22181.79887391  .00001894  00000-0  14599-3 0  9992","DECAY_DATE":null,"ELEMENT_SET_NO":"999","EPOCH":"2022-06-30T19:10:22.705824","INCLINATION":"53.0551","MEAN_MOTION_DOT":"0.00001894","BSTAR":"0.00014599000000","MEAN_ELEMENT_THEORY":"SGP4","COUNTRY_CODE":"US","PERIAPSIS":"546.176","EPHEMERIS_TYPE":"0","OBJECT_NAME":"STARLINK-2049","TIME_SYSTEM":"UTC","GP_ID":"207176751"},{"COUNTRY_CODE":"US","BSTAR":"0.00008554500000","MEAN_ELEMENT_THEORY":"SGP4","EPHEMERIS_TYPE":"0","OBJECT_NAME":"STARLINK-2050","TIME_SYSTEM":"UTC","GP_ID":"207175502","PERIAPSIS":"546.059","MEAN_MOTION_DOT":"0.00000993","ELEMENT_SET_NO":"999","INCLINATION":"53.0564","EPOCH":"2022-06-30T20:57:52.344864","TLE_LINE1":"1 47357U 21005J   22181.87352251  .00000993  00000-0  85545-4 0  9993","DECAY_DATE":null,"OBJECT_ID":"2021-005J","APOAPSIS":"548.419","PERIOD":"95.593","MEAN_MOTION_DDOT":"0.0000000000000","NORAD_CAT_ID":"47357","SITE":"AFETR","RCS_SIZE":"LARGE","SEMIMAJOR_AXIS":"6925.374","OBJECT_TYPE":"PAYLOAD","ECCENTRICITY":"0.00017040","FILE":"3505946","REF_FRAME":"TEME","MEAN_ANOMALY":"282.2124","CENTER_NAME":"EARTH","ARG_OF_PERICENTER":"77.9056","REV_AT_EPOCH":"7989","LAUNCH_DATE":"2021-01-20","CLASSIFICATION_TYPE":"U","MEAN_MOTION":"15.06391675","TLE_LINE2":"2 47357  53.0564 352.1977 0001704  77.9056 282.2124 15.06391675 79898","RA_OF_ASC_NODE":"352.1977"},{"PERIOD":"95.592","APOAPSIS":"548.368","OBJECT_ID":"2021-005K","DECAY_DATE":null,"TLE_LINE1":"1 47358U 21005K   22181.80899208  .00000086  00000-0  24681-4 0  9992","ELEMENT_SET_NO":"999","EPOCH":"2022-06-30T19:24:56.915712","INCLINATION":"53.0572","MEAN_MOTION_DOT":"0.00000086","MEAN_ELEMENT_THEORY":"SGP4","BSTAR":"0.00002468100000","COUNTRY_CODE":"US","PERIAPSIS":"546.093","GP_ID":"207175752","OBJECT_NAME":"STARLINK-2055","EPHEMERIS_TYPE":"0","TIME_SYSTEM":"UTC","REV_AT_EPOCH":"8030","ARG_OF_PERICENTER":"73.7557","RA_OF_ASC_NODE":"322.4864","MEAN_MOTION":"15.06394487","TLE_LINE2":"2 47358  53.0572 322.4864 0001642  73.7557 286.3612 15.06394487 80303","LAUNCH_DATE":"2021-01-20","CLASSIFICATION_TYPE":"U","ECCENTRICITY":"0.00016420","CENTER_NAME":"EARTH","MEAN_ANOMALY":"286.3612","REF_FRAME":"TEME","FILE":"3505946","RCS_SIZE":"LARGE","SITE":"AFETR","NORAD_CAT_ID":"47358","OBJECT_TYPE":"PAYLOAD","SEMIMAJOR_AXIS":"6925.365","MEAN_MOTION_DDOT":"0.0000000000000"},{"EPOCH":"2022-06-30T21:17:06.032832","INCLINATION":"53.0563","ELEMENT_SET_NO":"999","OBJECT_ID":"2021-005L","APOAPSIS":"548.321","PERIOD":"95.592","TLE_LINE1":"1 47359U 21005L   22181.88687538  .00001584  00000-0  12521-3 0  9995","DECAY_DATE":null,"PERIAPSIS":"546.128","EPHEMERIS_TYPE":"0","TIME_SYSTEM":"UTC","OBJECT_NAME":"STARLINK-2069","GP_ID":"207176503","BSTAR":"0.00012521000000","MEAN_ELEMENT_THEORY":"SGP4","COUNTRY_CODE":"US","MEAN_MOTION_DOT":"0.00001584","MEAN_ANOMALY":"287.5817","CENTER_NAME":"EARTH","FILE":"3505946","REF_FRAME":"TEME","ECCENTRICITY":"0.00015830","MEAN_MOTION":"15.06396451","TLE_LINE2":"2 47359  53.0563 347.1352 0001583  72.5345 287.5817 15.06396451 79969","RA_OF_ASC_NODE":"347.1352","LAUNCH_DATE":"2021-01-20","CLASSIFICATION_TYPE":"U","ARG_OF_PERICENTER":"72.5345","REV_AT_EPOCH":"7996","MEAN_MOTION_DDOT":"0.0000000000000","OBJECT_TYPE":"PAYLOAD","SEMIMAJOR_AXIS":"6925.359","RCS_SIZE":"LARGE","SITE":"AFETR","NORAD_CAT_ID":"47359"},{"MEAN_MOTION_DOT":"0.00001762","PERIAPSIS":"546.124","OBJECT_NAME":"STARLINK-2070","EPHEMERIS_TYPE":"0","TIME_SYSTEM":"UTC","GP_ID":"207177251","BSTAR":"0.00013721000000","MEAN_ELEMENT_THEORY":"SGP4","COUNTRY_CODE":"US","APOAPSIS":"548.356","OBJECT_ID":"2021-005M","PERIOD":"95.593","TLE_LINE1":"1 47360U 21005M   22181.76064664  .00001762  00000-0  13721-3 0  9994","DECAY_DATE":null,"EPOCH":"2022-06-30T18:15:19.869696","INCLINATION":"53.0549","ELEMENT_SET_NO":"999","OBJECT_TYPE":"PAYLOAD","SEMIMAJOR_AXIS":"6925.375","SITE":"AFETR","RCS_SIZE":"LARGE","NORAD_CAT_ID":"47360","MEAN_MOTION_DDOT":"0.0000000000000","MEAN_MOTION":"15.06391327","TLE_LINE2":"2 47360  53.0549 317.7211 0001611  67.8386 292.2774 15.06391327 80375","RA_OF_ASC_NODE":"317.7211","LAUNCH_DATE":"2021-01-20","CLASSIFICATION_TYPE":"U","ARG_OF_PERICENTER":"67.8386","REV_AT_EPOCH":"8037","MEAN_ANOMALY":"292.2774","CENTER_NAME":"EARTH","FILE":"3505946","REF_FRAME":"TEME","ECCENTRICITY":"0.00016110"}];
